{"type": "FeatureCollection", "features": [ {"type": "Feature", "properties": {"norad_id": 41774, "name": "SKYSAT-C3", "group": "resource", "lat": -1.04564176095699, "lon": 17.436083314920268, "alt_km": 437.23892047613026, "timestamp": "2025-12-09T09:46:47.304466+00:00", "meta": {"OBJECT_NAME": "SKYSAT-C3", "OBJECT_ID": "2016-058E", "EPOCH": "2025-12-09T02:00:29.665152", "MEAN_MOTION": 15.44198745, "ECCENTRICITY": 0.0001597, "INCLINATION": 96.9299, "RA_OF_ASC_NODE": 17.0002, "ARG_OF_PERICENTER": 104.8504, "MEAN_ANOMALY": 255.2922, "EPHEMERIS_TYPE": 0, "CLASSIFICATION_TYPE": "U", "NORAD_CAT_ID": 41774, "ELEMENT_SET_NO": 999, "REV_AT_EPOCH": 51669, "BSTAR": 0.00047404, "MEAN_MOTION_DOT": 0.00021701, "MEAN_MOTION_DDOT": 0}, "tle": {"line1": "1 41774U 16058E   25343.08367668  .00021701  00000+0  47404-3 0  9996", "line2": "2 41774  96.9299  17.0002 0001597 104.8504 255.2922 15.44198745516695"}}, "geometry": {"type": "Point", "coordinates": [17.436083314920268, -1.04564176095699]}}, {"type": "Feature", "properties": {"norad_id": 41785, "name": "ALSAT 1B", "group": "resource", "lat": 2.274345523412126, "lon": -4.970321998668729, "alt_km": 659.7278471055088, "timestamp": "2025-12-09T09:46:47.304478+00:00", "meta": {"OBJECT_NAME": "ALSAT 1B", "OBJECT_ID": "2016-059C", "EPOCH": "2025-12-09T04:52:31.282176", "MEAN_MOTION": 14.72069586, "ECCENTRICITY": 0.001059, "INCLINATION": 97.781, "RA_OF_ASC_NODE": 355.1453, "ARG_OF_PERICENTER": 113.1271, "MEAN_ANOMALY": 247.1054, "EPHEMERIS_TYPE": 0, "CLASSIFICATION_TYPE": "U", "NORAD_CAT_ID": 41785, "ELEMENT_SET_NO": 999, "REV_AT_EPOCH": 49262, "BSTAR": 0.00011809, "MEAN_MOTION_DOT": 6.96e-06, "MEAN_MOTION_DDOT": 0}, "tle": {"line1": "1 41785U 16059C   25343.20313984  .00000696  00000+0  11809-3 0  9995", "line2": "2 41785  97.7810 355.1453 0010590 113.1271 247.1054 14.72069586492620"}}, "geometry": {"type": "Point", "coordinates": [-4.970321998668729, 2.274345523412126]}}, {"type": "Feature", "properties": {"norad_id": 41787, "name": "PATHFINDER 1", "group": "resource", "lat": 41.112676268696475, "lon": 173.21890314774794, "alt_km": 651.9472860231408, "timestamp": "2025-12-09T09:46:47.304488+00:00", "meta": {"OBJECT_NAME": "PATHFINDER 1", "OBJECT_ID": "2016-059E", "EPOCH": "2025-12-08T23:20:03.761664", "MEAN_MOTION": 14.67309943, "ECCENTRICITY": 0.0030056, "INCLINATION": 97.8138, "RA_OF_ASC_NODE": 345.9207, "ARG_OF_PERICENTER": 92.6206, "MEAN_ANOMALY": 267.844, "EPHEMERIS_TYPE": 0, "CLASSIFICATION_TYPE": "U", "NORAD_CAT_ID": 41787, "ELEMENT_SET_NO": 999, "REV_AT_EPOCH": 49181, "BSTAR": 0.0002191, "MEAN_MOTION_DOT": 1.198e-05, "MEAN_MOTION_DDOT": 0}, "tle": {"line1": "1 41787U 16059E   25342.97226576  .00001198  00000+0  21910-3 0  9992", "line2": "2 41787  97.8138 345.9207 0030056  92.6206 267.8440 14.67309943491814"}}, "geometry": {"type": "Point", "coordinates": [173.21890314774794, 41.112676268696475]}}, {"type": "Feature", "properties": {"norad_id": 41790, "name": "SCATSAT 1", "group": "resource", "lat": -8.899217980884575, "lon": 41.32142312679527, "alt_km": 669.9004526069093, "timestamp": "2025-12-09T09:46:47.304499+00:00", "meta": {"OBJECT_NAME": "SCATSAT 1", "OBJECT_ID": "2016-059H", "EPOCH": "2025-12-09T03:19:31.895040", "MEAN_MOTION": 14.78916478, "ECCENTRICITY": 0.005608, "INCLINATION": 98.1466, "RA_OF_ASC_NODE": 39.7639, "ARG_OF_PERICENTER": 139.3888, "MEAN_ANOMALY": 221.1527, "EPHEMERIS_TYPE": 0, "CLASSIFICATION_TYPE": "U", "NORAD_CAT_ID": 41790, "ELEMENT_SET_NO": 999, "REV_AT_EPOCH": 7349, "BSTAR": 0.00029703, "MEAN_MOTION_DOT": 2.192e-05, "MEAN_MOTION_DDOT": 0}, "tle": {"line1": "1 41790U 16059H   25343.13856360  .00002192  00000+0  29703-3 0  9998", "line2": "2 41790  98.1466  39.7639 0056080 139.3888 221.1527 14.78916478 73491"}}, "geometry": {"type": "Point", "coordinates": [41.32142312679527, -8.899217980884575]}}, {"type": "Feature", "properties": {"norad_id": 41875, "name": "GOKTURK 1A", "group": "resource", "lat": -81.83992298128089, "lon": -31.060620866435222, "alt_km": 692.4586851592549, "timestamp": "2025-12-09T09:46:47.304509+00:00", "meta": {"OBJECT_NAME": "GOKTURK 1A", "OBJECT_ID": "2016-073A", "EPOCH": "2025-12-09T05:16:03.955008", "MEAN_MOTION": 14.62773914, "ECCENTRICITY": 0.0001278, "INCLINATION": 98.1428, "RA_OF_ASC_NODE": 235.6314, "ARG_OF_PERICENTER": 77.0124, "MEAN_ANOMALY": 283.122, "EPHEMERIS_TYPE": 0, "CLASSIFICATION_TYPE": "U", "NORAD_CAT_ID": 41875, "ELEMENT_SET_NO": 999, "REV_AT_EPOCH": 48105, "BSTAR": 0.00020639, "MEAN_MOTION_DOT": 1.006e-05, "MEAN_MOTION_DDOT": 0}, "tle": {"line1": "1 41875U 16073A   25343.21949022  .00001006  00000+0  20639-3 0  9997", "line2": "2 41875  98.1428 235.6314 0001278  77.0124 283.1220 14.62773914481052"}}, "geometry": {"type": "Point", "coordinates": [-31.060620866435222, -81.83992298128089]}}, {"type": "Feature", "properties": {"norad_id": 41877, "name": "RESOURCESAT-2A", "group": "resource", "lat": 81.07815945862761, "lon": -46.97755535129365, "alt_km": 813.3191405807611, "timestamp": "2025-12-09T09:46:47.304520+00:00", "meta": {"OBJECT_NAME": "RESOURCESAT-2A", "OBJECT_ID": "2016-074A", "EPOCH": "2025-12-09T04:16:58.829952", "MEAN_MOTION": 14.21597552, "ECCENTRICITY": 0.0001142, "INCLINATION": 98.7759, "RA_OF_ASC_NODE": 53.055, "ARG_OF_PERICENTER": 273.1549, "MEAN_ANOMALY": 86.9497, "EPHEMERIS_TYPE": 0, "CLASSIFICATION_TYPE": "U", "NORAD_CAT_ID": 41877, "ELEMENT_SET_NO": 999, "REV_AT_EPOCH": 46730, "BSTAR": 0.00018047, "MEAN_MOTION_DOT": 3.51e-06, "MEAN_MOTION_DDOT": 0}, "tle": {"line1": "1 41877U 16074A   25343.17845868  .00000351  00000+0  18047-3 0  9990", "line2": "2 41877  98.7759  53.0550 0001142 273.1549  86.9497 14.21597552467305"}}, "geometry": {"type": "Point", "coordinates": [-46.97755535129365, 81.07815945862761]}}, {"type": "Feature", "properties": {"norad_id": 41948, "name": "CARTOSAT-2D", "group": "resource", "lat": 8.4991321213173, "lon": 39.83598658508042, "alt_km": 512.9886178101187, "timestamp": "2025-12-09T09:46:47.304530+00:00", "meta": {"OBJECT_NAME": "CARTOSAT-2D", "OBJECT_ID": "2017-008A", "EPOCH": "2025-12-08T22:40:35.783904", "MEAN_MOTION": 15.1919468, "ECCENTRICITY": 0.0004274, "INCLINATION": 97.439, "RA_OF_ASC_NODE": 40.4992, "ARG_OF_PERICENTER": 173.1191, "MEAN_ANOMALY": 187.0103, "EPHEMERIS_TYPE": 0, "CLASSIFICATION_TYPE": "U", "NORAD_CAT_ID": 41948, "ELEMENT_SET_NO": 999, "REV_AT_EPOCH": 48869, "BSTAR": 0.00017340876, "MEAN_MOTION_DOT": 3.581e-05, "MEAN_MOTION_DDOT": 0}, "tle": {"line1": "1 41948U 17008A   25342.94485861  .00003581  00000+0  17341-3 0  9998", "line2": "2 41948  97.4390  40.4992 0004274 173.1191 187.0103 15.19194680488697"}}, "geometry": {"type": "Point", "coordinates": [39.83598658508042, 8.4991321213173]}}, {"type": "Feature", "properties": {"norad_id": 42063, "name": "SENTINEL-2B", "group": "resource", "lat": -49.534007254893666, "lon": 66.0843570721706, "alt_km": 796.5108533165203, "timestamp": "2025-12-09T09:46:47.304541+00:00", "meta": {"OBJECT_NAME": "SENTINEL-2B", "OBJECT_ID": "2017-013A", "EPOCH": "2025-12-08T22:15:58.347360", "MEAN_MOTION": 14.30812743, "ECCENTRICITY": 0.00011416, "INCLINATION": 98.572, "RA_OF_ASC_NODE": 55.4271, "ARG_OF_PERICENTER": 93.0805, "MEAN_ANOMALY": 267.0508, "EPHEMERIS_TYPE": 0, "CLASSIFICATION_TYPE": "U", "NORAD_CAT_ID": 42063, "ELEMENT_SET_NO": 999, "REV_AT_EPOCH": 45743, "BSTAR": 1.2424479e-05, "MEAN_MOTION_DOT": -1.1e-07, "MEAN_MOTION_DDOT": 0}, "tle": {"line1": "1 42063U 17013A   25342.92775865 -.00000011  00000+0  12424-4 0  9991", "line2": "2 42063  98.5720  55.4271 0001141  93.0805 267.0508 14.30812743457438"}}, "geometry": {"type": "Point", "coordinates": [66.0843570721706, -49.534007254893666]}}, {"type": "Feature", "properties": {"norad_id": 42767, "name": "CARTOSAT-2E", "group": "resource", "lat": -78.05379437492913, "lon": 79.27797617260977, "alt_km": 513.9289871404562, "timestamp": "2025-12-09T09:46:47.304554+00:00", "meta": {"OBJECT_NAME": "CARTOSAT-2E", "OBJECT_ID": "2017-036C", "EPOCH": "2025-12-09T03:48:41.056128", "MEAN_MOTION": 15.19263445, "ECCENTRICITY": 0.000238, "INCLINATION": 97.4558, "RA_OF_ASC_NODE": 40.7915, "ARG_OF_PERICENTER": 255.1174, "MEAN_ANOMALY": 104.9797, "EPHEMERIS_TYPE": 0, "CLASSIFICATION_TYPE": "U", "NORAD_CAT_ID": 42767, "ELEMENT_SET_NO": 999, "REV_AT_EPOCH": 46929, "BSTAR": 0.00021093, "MEAN_MOTION_DOT": 4.379e-05, "MEAN_MOTION_DDOT": 0}, "tle": {"line1": "1 42767U 17036C   25343.15880852  .00004379  00000+0  21093-3 0  9997", "line2": "2 42767  97.4558  40.7915 0002380 255.1174 104.9797 15.19263445469297"}}, "geometry": {"type": "Point", "coordinates": [79.27797617260977, -78.05379437492913]}}, {"type": "Feature", "properties": {"norad_id": 42920, "name": "FORMOSAT-5", "group": "resource", "lat": 68.5875305899797, "lon": 36.09020117356396, "alt_km": 719.6068829680535, "timestamp": "2025-12-09T09:46:47.304565+00:00", "meta": {"OBJECT_NAME": "FORMOSAT-5", "OBJECT_ID": "2017-049A", "EPOCH": "2025-12-09T04:29:33.392256", "MEAN_MOTION": 14.51001878, "ECCENTRICITY": 0.001003, "INCLINATION": 98.2456, "RA_OF_ASC_NODE": 57.5766, "ARG_OF_PERICENTER": 307.5764, "MEAN_ANOMALY": 52.4519, "EPHEMERIS_TYPE": 0, "CLASSIFICATION_TYPE": "U", "NORAD_CAT_ID": 42920, "ELEMENT_SET_NO": 999, "REV_AT_EPOCH": 43912, "BSTAR": 0.00011169, "MEAN_MOTION_DOT": 3.98e-06, "MEAN_MOTION_DDOT": 0}, "tle": {"line1": "1 42920U 17049A   25343.18719204  .00000398  00000+0  11169-3 0  9997", "line2": "2 42920  98.2456  57.5766 0010030 307.5764  52.4519 14.51001878439125"}}, "geometry": {"type": "Point", "coordinates": [36.09020117356396, 68.5875305899797]}}]}